STARLINK-35827          
1 66365U 25254T   25323.51148716 -.00645110  00000+0 -37233-2 0  9990
2 66365  53.1571  30.2014 0001761  85.9197 274.2026 15.79623870  2029
STARLINK-35845          
1 66366U 25254U   25323.57396250 -.01228591  00000+0 -74917-2 0  9996
2 66366  53.1568  29.8794 0001921   9.2335 350.8722 15.79461414  2035
STARLINK-35846          
1 66367U 25254V   25323.51109172 -.00626057  00000+0 -36111-2 0  9998
2 66367  53.1568  30.1984 0001672  85.5683 274.5531 15.79589514  2029
STARLINK-34861          
1 66368U 25254W   25323.57358439 -.00601489  00000+0 -35106-2 0  9992
2 66368  53.1563  29.8760 0001095  47.0822 313.0292 15.79272660  2034
STARLINK-35795          
1 66369U 25254X   25323.19355046 -.00726023  00000+0 -35438-2 0  9992
2 66369  53.1564  31.7726 0007222 232.7086 127.3280 15.83335616  1974
STARLINK-35824          
1 66370U 25254Y   25323.00002315  .11656309  00000+0  66395-1 0  9996
2 66370  53.1570  32.7773 0004522 337.1244 343.6414 15.73009276  3076
STARLINK-35804          
1 66371U 25254Z   25323.25586219 -.00118875  00000+0 -63256-3 0  9990
2 66371  53.1567  31.4498 0003128 341.8781  18.2130 15.79969074  1987
STARLINK-35821          
1 66372U 25254AA  25323.57274775 -.00626534  00000+0 -36921-2 0  9991
2 66372  53.1570  29.8710 0001480  43.1961 316.9177 15.79123431  2036
STARLINK-35809          
1 66373U 25254AB  25323.00002315  .21226236  00000+0  19801+0 0  9990
2 66373  53.1580  32.7809 0015063 282.2680  31.6118 15.66427650  3107
STARLINK-35831          
1 66374U 25254AC  25323.57152490 -.00659624  00000+0 -39387-2 0  9997
2 66374  53.1567  29.8616 0001200  63.4766 296.6379 15.78921441  2031
STARLINK-35826          
1 66375U 25254AD  25323.50783643 -.00679901  00000+0 -40318-2 0  9997
2 66375  53.1566  30.1750 0001815  56.5923 303.5272 15.79120494  2024
SHIYAN-32 A             
1 66376U 25255A   25323.42331622  .00019946  00000+0  47347-3 0  9991
2 66376  52.9970 288.8070 0013144 328.5901  31.4317 15.41638576  1754
